ONEWEB-0661             
1 55821U 23029AB  24052.50343198  .00000314  00000+0  81159-3 0  9997
2 55821  87.8924  98.2671 0002489  93.9125 266.2289 13.14503862 48152
ONEWEB-0662             
1 55822U 23029AC  24052.61442359 -.00000464  00000+0 -12867-2 0  9996
2 55822  87.8922  98.2526 0002249  87.7278 272.4109 13.14502099 48212
ONEWEB-0663             
1 55823U 23029AD  24052.61564809  .00000024  00000+0  26875-4 0  9998
2 55823  87.9134  82.9614 0002273  85.7865 274.3528 13.20772593 50072
ONEWEB-0664             
1 55824U 23029AE  24052.60933924 -.00000015  00000+0 -69345-4 0  9997
2 55824  87.9134  82.9748 0002414 101.0974 259.0430 13.20770743 49391
ONEWEB-0665             
1 55825U 23029AF  24052.57637567  .00000197  00000+0  49748-3 0  9991
2 55825  87.8921  98.2275 0002295  91.8542 268.2850 13.14502762 48185
ONEWEB-0666             
1 55826U 23029AG  24052.60301732  .00000040  00000+0  66078-4 0  9991
2 55826  87.9134  82.9673 0001690 107.1371 252.9948 13.20769878 49408
ONEWEB-0667             
1 55827U 23029AH  24052.59671165  .00000026  00000+0  31927-4 0  9999
2 55827  87.9133  82.9024 0002304  93.3024 266.8373 13.20770815 49399
ONEWEB-0669             
1 55828U 23029AJ  24052.59197297  .00000035  00000+0  54468-4 0  9994
2 55828  87.9134  82.9416 0002218 116.2272 243.9090 13.20771314 49397
